start=new Date('2023-07-04T00:00:00.000Z').valueOf();
sats=[{"OBJECT_NAME":"STARLINK-1559","DECAY_DATE":null,"NORAD_CAT_ID":"46077","MEAN_ELEMENT_THEORY":"SGP4","INCLINATION":"53.0541","EPHEMERIS_TYPE":"0","TLE_LINE2":"2 46077  53.0541 179.0069 0001222  87.9262 272.1867 15.06399841160968","CLASSIFICATION_TYPE":"U","OBJECT_ID":"2020-055BC","RA_OF_ASC_NODE":"179.0069","APOAPSIS":"548.060","BSTAR":"0.00003581700000","SEMIMAJOR_AXIS":"6925.349","ELEMENT_SET_NO":"999","MEAN_MOTION":"15.06399841","MEAN_MOTION_DDOT":"0.0000000000000","MEAN_ANOMALY":"272.1867","EPOCH":"2023-07-03T00:30:30.053952","CENTER_NAME":"EARTH","MEAN_MOTION_DOT":"0.00000252","LAUNCH_DATE":"2020-08-07","PERIAPSIS":"546.368","OBJECT_TYPE":"PAYLOAD","COUNTRY_CODE":"US","FILE":"3948062","TLE_LINE1":"1 46077U 20055BC  23184.02118118  .00000252  00000-0  35817-4 0  9993","REV_AT_EPOCH":"16096","RCS_SIZE":"LARGE","REF_FRAME":"TEME","GP_ID":"234682920","ECCENTRICITY":"0.00012220","SITE":"AFETR","PERIOD":"95.592","ARG_OF_PERICENTER":"87.9262","TIME_SYSTEM":"UTC"},{"APOAPSIS":"548.011","RA_OF_ASC_NODE":"179.1074","BSTAR":"-0.00000733690000","OBJECT_ID":"2020-055BD","CLASSIFICATION_TYPE":"U","TLE_LINE2":"2 46078  53.0536 179.1074 0001137  93.4224 266.6895 15.06396785160968","EPHEMERIS_TYPE":"0","INCLINATION":"53.0536","MEAN_ELEMENT_THEORY":"SGP4","NORAD_CAT_ID":"46078","DECAY_DATE":null,"OBJECT_NAME":"STARLINK-1563","GP_ID":"234683108","REF_FRAME":"TEME","PERIOD":"95.592","TIME_SYSTEM":"UTC","ARG_OF_PERICENTER":"93.4224","SITE":"AFETR","ECCENTRICITY":"0.00011370","FILE":"3948087","RCS_SIZE":"LARGE","TLE_LINE1":"1 46078U 20055BD  23183.99906866 -.00000391  00000-0 -73369-5 0  9995","REV_AT_EPOCH":"16096","PERIAPSIS":"546.436","LAUNCH_DATE":"2020-08-07","MEAN_MOTION_DOT":"-0.00000391","CENTER_NAME":"EARTH","EPOCH":"2023-07-02T23:58:39.532224","COUNTRY_CODE":"US","OBJECT_TYPE":"PAYLOAD","MEAN_MOTION":"15.06396785","ELEMENT_SET_NO":"999","SEMIMAJOR_AXIS":"6925.358","MEAN_ANOMALY":"266.6895","MEAN_MOTION_DDOT":"0.0000000000000"},{"REF_FRAME":"TEME","GP_ID":"234682626","ECCENTRICITY":"0.00011620","ARG_OF_PERICENTER":"91.7607","PERIOD":"95.592","TIME_SYSTEM":"UTC","SITE":"AFETR","FILE":"3948079","REV_AT_EPOCH":"16098","TLE_LINE1":"1 46079U 20055BE  23184.12438440  .00000173  00000-0  30478-4 0  9999","RCS_SIZE":"LARGE","EPOCH":"2023-07-03T02:59:06.812160","LAUNCH_DATE":"2020-08-07","PERIAPSIS":"546.399","CENTER_NAME":"EARTH","MEAN_MOTION_DOT":"0.00000173","OBJECT_TYPE":"PAYLOAD","COUNTRY_CODE":"US","ELEMENT_SET_NO":"999","SEMIMAJOR_AXIS":"6925.339","MEAN_MOTION":"15.06403249","MEAN_MOTION_DDOT":"0.0000000000000","MEAN_ANOMALY":"268.3515","RA_OF_ASC_NODE":"178.5439","APOAPSIS":"548.008","BSTAR":"0.00003047800000","TLE_LINE2":"2 46079  53.0537 178.5439 0001162  91.7607 268.3515 15.06403249160986","EPHEMERIS_TYPE":"0","CLASSIFICATION_TYPE":"U","OBJECT_ID":"2020-055BE","NORAD_CAT_ID":"46079","MEAN_ELEMENT_THEORY":"SGP4","INCLINATION":"53.0537","DECAY_DATE":null,"OBJECT_NAME":"STARLINK-1566"},{"DECAY_DATE":null,"OBJECT_NAME":"STARLINK-1568","MEAN_ELEMENT_THEORY":"SGP4","NORAD_CAT_ID":"46080","INCLINATION":"53.0547","EPHEMERIS_TYPE":"0","TLE_LINE2":"2 46080  53.0547 176.0378 0001044  91.6745 268.4364 15.06394625161065","OBJECT_ID":"2020-055BF","CLASSIFICATION_TYPE":"U","BSTAR":"-0.00003295400000","RA_OF_ASC_NODE":"176.0378","APOAPSIS":"547.953","MEAN_MOTION_DDOT":"0.0000000000000","MEAN_ANOMALY":"268.4364","ELEMENT_SET_NO":"999","SEMIMAJOR_AXIS":"6925.365","MEAN_MOTION":"15.06394625","OBJECT_TYPE":"PAYLOAD","COUNTRY_CODE":"US","EPOCH":"2023-07-03T16:19:13.658880","MEAN_MOTION_DOT":"-0.00000772","CENTER_NAME":"EARTH","LAUNCH_DATE":"2020-08-07","PERIAPSIS":"546.507","TLE_LINE1":"1 46080U 20055BF  23184.68001920 -.00000772  00000-0 -32954-4 0  9999","RCS_SIZE":"LARGE","REV_AT_EPOCH":"16106","FILE":"3948768","ECCENTRICITY":"0.00010440","SITE":"AFETR","PERIOD":"95.592","ARG_OF_PERICENTER":"91.6745","TIME_SYSTEM":"UTC","REF_FRAME":"TEME","GP_ID":"234697661"},{"LAUNCH_DATE":"2020-08-07","PERIAPSIS":"546.395","MEAN_MOTION_DOT":"-0.00000027","CENTER_NAME":"EARTH","EPOCH":"2023-07-03T17:08:21.586272","COUNTRY_CODE":"US","OBJECT_TYPE":"PAYLOAD","MEAN_MOTION":"15.06396266","SEMIMAJOR_AXIS":"6925.360","ELEMENT_SET_NO":"999","MEAN_ANOMALY":"272.1781","MEAN_MOTION_DDOT":"0.0000000000000","GP_ID":"234697659","REF_FRAME":"TEME","PERIOD":"95.592","ARG_OF_PERICENTER":"87.9345","TIME_SYSTEM":"UTC","SITE":"AFETR","ECCENTRICITY":"0.00011980","FILE":"3948768","TLE_LINE1":"1 46081U 20055BG  23184.71413873 -.00000027  00000-0  17045-4 0  9994","RCS_SIZE":"LARGE","REV_AT_EPOCH":"16106","INCLINATION":"53.0537","NORAD_CAT_ID":"46081","MEAN_ELEMENT_THEORY":"SGP4","OBJECT_NAME":"STARLINK-1571","DECAY_DATE":null,"APOAPSIS":"548.055","RA_OF_ASC_NODE":"175.9004","BSTAR":"0.00001704500000","OBJECT_ID":"2020-055BG","CLASSIFICATION_TYPE":"U","TLE_LINE2":"2 46081  53.0537 175.9004 0001198  87.9345 272.1781 15.06396266161061","EPHEMERIS_TYPE":"0"},{"BSTAR":"0.00001632700000","APOAPSIS":"548.066","RA_OF_ASC_NODE":"176.0978","OBJECT_ID":"2020-055BH","CLASSIFICATION_TYPE":"U","EPHEMERIS_TYPE":"0","TLE_LINE2":"2 46082  53.0539 176.0978 0001217  89.1198 270.9930 15.06396700161063","INCLINATION":"53.0539","MEAN_ELEMENT_THEORY":"SGP4","NORAD_CAT_ID":"46082","DECAY_DATE":null,"OBJECT_NAME":"STARLINK-1578","SITE":"AFETR","PERIOD":"95.592","TIME_SYSTEM":"UTC","ARG_OF_PERICENTER":"89.1198","ECCENTRICITY":"0.00012170","GP_ID":"234697670","REF_FRAME":"TEME","RCS_SIZE":"LARGE","TLE_LINE1":"1 46082U 20055BH  23184.66990717 -.00000038  00000-0  16327-4 0  9990","REV_AT_EPOCH":"16106","FILE":"3948769","COUNTRY_CODE":"US","OBJECT_TYPE":"PAYLOAD","CENTER_NAME":"EARTH","MEAN_MOTION_DOT":"-0.00000038","PERIAPSIS":"546.381","LAUNCH_DATE":"2020-08-07","EPOCH":"2023-07-03T16:04:39.979488","MEAN_ANOMALY":"270.9930","MEAN_MOTION_DDOT":"0.0000000000000","MEAN_MOTION":"15.06396700","ELEMENT_SET_NO":"999","SEMIMAJOR_AXIS":"6925.359"},{"GP_ID":"234697669","REF_FRAME":"TEME","SITE":"AFETR","TIME_SYSTEM":"UTC","PERIOD":"95.592","ARG_OF_PERICENTER":"88.0371","ECCENTRICITY":"0.00012370","FILE":"3948769","TLE_LINE1":"1 46083U 20055BJ  23184.70676738 -.00000596  00000-0 -21158-4 0  9998","RCS_SIZE":"LARGE","REV_AT_EPOCH":"16106","MEAN_MOTION_DOT":"-0.00000596","CENTER_NAME":"EARTH","LAUNCH_DATE":"2020-08-07","PERIAPSIS":"546.372","EPOCH":"2023-07-03T16:57:44.701632","COUNTRY_CODE":"US","OBJECT_TYPE":"PAYLOAD","MEAN_MOTION":"15.06395178","SEMIMAJOR_AXIS":"6925.363","ELEMENT_SET_NO":"999","MEAN_ANOMALY":"272.0760","MEAN_MOTION_DDOT":"0.0000000000000","APOAPSIS":"548.085","RA_OF_ASC_NODE":"175.9333","BSTAR":"-0.00002115800000","CLASSIFICATION_TYPE":"U","OBJECT_ID":"2020-055BJ","EPHEMERIS_TYPE":"0","TLE_LINE2":"2 46083  53.0548 175.9333 0001237  88.0371 272.0760 15.06395178161062","INCLINATION":"53.0548","NORAD_CAT_ID":"46083","MEAN_ELEMENT_THEORY":"SGP4","OBJECT_NAME":"STARLINK-1579","DECAY_DATE":null},{"OBJECT_TYPE":"PAYLOAD","COUNTRY_CODE":"US","EPOCH":"2023-07-03T17:45:31.372416","CENTER_NAME":"EARTH","MEAN_MOTION_DOT":"0.00015954","LAUNCH_DATE":"2020-08-18","PERIAPSIS":"546.343","MEAN_MOTION_DDOT":"0.0000000000000","MEAN_ANOMALY":"289.1209","SEMIMAJOR_AXIS":"6925.276","ELEMENT_SET_NO":"999","MEAN_MOTION":"15.06423672","ECCENTRICITY":"0.00011530","SITE":"AFETR","PERIOD":"95.591","TIME_SYSTEM":"UTC","ARG_OF_PERICENTER":"70.9905","REF_FRAME":"TEME","GP_ID":"234697328","REV_AT_EPOCH":"15930","TLE_LINE1":"1 46117U 20057A   23184.73994644  .00015954  00000-0  10868-2 0  9996","RCS_SIZE":"LARGE","FILE":"3948751","NORAD_CAT_ID":"46117","MEAN_ELEMENT_THEORY":"SGP4","INCLINATION":"53.0549","DECAY_DATE":null,"OBJECT_NAME":"STARLINK-1585","BSTAR":"0.00108680000000","RA_OF_ASC_NODE":"15.7812","APOAPSIS":"547.939","EPHEMERIS_TYPE":"0","TLE_LINE2":"2 46117  53.0549  15.7812 0001153  70.9905 289.1209 15.06423672159306","CLASSIFICATION_TYPE":"U","OBJECT_ID":"2020-057A"},{"REF_FRAME":"TEME","GP_ID":"234682303","ECCENTRICITY":"0.00011690","SITE":"AFETR","TIME_SYSTEM":"UTC","PERIOD":"95.592","ARG_OF_PERICENTER":"76.2743","FILE":"3948055","RCS_SIZE":"LARGE","TLE_LINE1":"1 46118U 20057B   23183.88665881  .00005171  00000-0  36573-3 0  9992","REV_AT_EPOCH":"15889","EPOCH":"2023-07-02T21:16:47.321184","MEAN_MOTION_DOT":"0.00005171","CENTER_NAME":"EARTH","LAUNCH_DATE":"2020-08-18","PERIAPSIS":"546.397","OBJECT_TYPE":"PAYLOAD","COUNTRY_CODE":"US","SEMIMAJOR_AXIS":"6925.341","ELEMENT_SET_NO":"999","MEAN_MOTION":"15.06402311","MEAN_MOTION_DDOT":"0.0000000000000","MEAN_ANOMALY":"283.8376","RA_OF_ASC_NODE":"39.6181","APOAPSIS":"548.016","BSTAR":"0.00036573000000","EPHEMERIS_TYPE":"0","TLE_LINE2":"2 46118  53.0549  39.6181 0001169  76.2743 283.8376 15.06402311158893","CLASSIFICATION_TYPE":"U","OBJECT_ID":"2020-057B","MEAN_ELEMENT_THEORY":"SGP4","NORAD_CAT_ID":"46118","INCLINATION":"53.0549","DECAY_DATE":null,"OBJECT_NAME":"STARLINK-1588"},{"OBJECT_NAME":"STARLINK-1593","DECAY_DATE":null,"INCLINATION":"53.0541","MEAN_ELEMENT_THEORY":"SGP4","NORAD_CAT_ID":"46119","OBJECT_ID":"2020-057C","CLASSIFICATION_TYPE":"U","TLE_LINE2":"2 46119  53.0541  39.6630 0001115  91.2435 268.8681 15.06408916158890","EPHEMERIS_TYPE":"0","APOAPSIS":"547.958","RA_OF_ASC_NODE":"39.6630","BSTAR":"0.00050860000000","MEAN_MOTION":"15.06408916","SEMIMAJOR_AXIS":"6925.321","ELEMENT_SET_NO":"999","MEAN_ANOMALY":"268.8681","MEAN_MOTION_DDOT":"0.0000000000000","PERIAPSIS":"546.414","LAUNCH_DATE":"2020-08-18","MEAN_MOTION_DOT":"0.00007304","CENTER_NAME":"EARTH","EPOCH":"2023-07-02T21:00:51.728544","COUNTRY_CODE":"US","OBJECT_TYPE":"PAYLOAD","FILE":"3948250","REV_AT_EPOCH":"15889","TLE_LINE1":"1 46119U 20057C   23183.87559871  .00007304  00000-0  50860-3 0  9998","RCS_SIZE":"LARGE","GP_ID":"234687533","REF_FRAME":"TEME","PERIOD":"95.592","ARG_OF_PERICENTER":"91.2435","TIME_SYSTEM":"UTC","SITE":"AFETR","ECCENTRICITY":"0.00011150"}];
